#aV2022  4  3  0  0  0.00000000     288 DD+AD WGS84 FIT  NGA
## 2204      0.00000000   300.00000000 59672 0.0000000000000
+   32     1  2  3  4  5  6  7  8  9 10 11 12 13 14 15 16 17
+         18 19 20 21 22 23 24 25 26 27 28 29 30 31 32  0  0
+          0  0  0  0  0  0  0  0  0  0  0  0  0  0  0  0  0
+          0  0  0  0  0  0  0  0  0  0  0  0  0  0  0  0  0
+          0  0  0  0  0  0  0  0  0  0  0  0  0  0  0  0  0
++         2  2  2  2  2  2  2  2  2  2  2  2  2  2  2  2  2
++         2  2  2  2  2  2  2  2  2  2  2  2  2  2  2  0  0
++         0  0  0  0  0  0  0  0  0  0  0  0  0  0  0  0  0
++         0  0  0  0  0  0  0  0  0  0  0  0  0  0  0  0  0
++         0  0  0  0  0  0  0  0  0  0  0  0  0  0  0  0  0
%c cc cc ccc ccc cccc cccc cccc cccc ccccc ccccc ccccc ccccc
%c cc cc ccc ccc cccc cccc cccc cccc ccccc ccccc ccccc ccccc
%f  0.0000000  0.000000000  0.00000000000  0.000000000000000
%f  0.0000000  0.000000000  0.00000000000  0.000000000000000
%i    0    0    0    0      0      0      0      0         0
%i    0    0    0    0      0      0      0      0         0
/*      NGA, ST. LOUIS,MO.                                  
/*   EPHEMERIS COMPUTED FROM 2 DAYS OF DATA                 
/*   EPOCHA v7 SMOOTHER                                     
/*   G2139 IERS2010 SATIGS SATAPC                           
*  2022  4  3  5 55  0.00000000
P  1 -13753.049197  21008.053510   7795.002861    393.834025                    
V  1   1752.159749 -10442.285628  30468.970818     -0.088720                    
P  2  15571.474021  -2076.583894 -20785.062246   -652.868113                    
V  2  -7144.770599  26965.660535  -7668.144789     -0.002865                    
P  3 -18359.546570  12863.657678 -14258.654037   -190.997751                    
V  3 -18020.637375   1033.458216  24421.998023     -0.158887                    
P  4  -8601.934883  13264.487214 -21321.693083   -178.934128                    
V  4 -16927.178606 -21180.494841  -6427.628848      0.029356                    
P  5  26161.001924  -5037.873396   -524.110622    -76.944453                    
V  5     92.028126   2761.435365 -31622.965299     -0.013651                    
P  6   8495.057597  14998.722417 -20117.097409    253.261748                    
V  6  -9976.870793  23641.579847  13446.535934      0.133240                    
P  7  -3852.116948  25021.637136   7518.757867    318.884013                    
V  7  -6330.628966   7398.445985 -29881.542451      0.014213                    
P  8 -15920.157008   3756.966185  20959.905209    -62.384520                    
V  8 -16827.610652 -20619.244238  -8723.538525     -0.015148                    
P  9   2011.408215  20603.895118 -16686.453288   -346.099274                    
V  9 -15150.708474 -14807.744373 -20220.019903      0.023021                    
P 10 -11380.438265 -12431.294671  20744.704354   -366.814394                    
V 10  25435.624619  -4930.636064  10793.783492     -0.122456                    
P 11  16215.794468   -475.302793 -21033.639912    -47.683327                    
V 11 -10117.372998  24710.791807  -8372.677432      0.079325                    
P 12  21611.775267 -10113.776603 -11797.487642   -194.567084                    
V 12  14736.130427    824.200520  27023.090638     -0.057863                    
P 13  18331.212294   5918.347260  18207.612282    287.592561                    
V 13  11074.755226  20598.076701 -17535.515245      0.064312                    
P 14   9812.795590  13558.151385  20634.612243    -99.549942                    
V 14 -25913.103474   4121.976326   9532.721590     -0.031061                    
P 15  15374.904132  -6344.552798  20355.875119    -71.882692                    
V 15  18877.005996  19090.025496  -7831.402622      0.029347                    
P 16 -26463.170148  -1108.001238  -4424.680758   -487.701767                    
V 16   5034.922010  -2454.073429 -30996.280422     -0.040362                    
P 17  13438.988108  22670.958676   3495.443459    595.469837                    
V 17  -4073.323490  -1877.042529  31791.189961      0.048332                    
P 18   4934.819096 -25099.631313   6936.443960    204.805342                    
V 18   5548.382313  -7290.884319 -30408.045147     -0.091859                    
P 19  16985.496863  20046.418292  -4805.812548    139.391224                    
V 19   1445.945579   5899.100566  31242.193435      0.049893                    
P 20  24419.721190   -297.570381 -10142.010925    516.005879                    
V 20 -11339.799865   7106.561860 -27740.570683     -0.001890                    
P 21 -16254.274386  11967.956142  17564.635179    160.083122                    
V 21   4062.105746 -20998.025113  19432.392689      0.003678                    
P 22 -18099.956840 -18327.816050  -6445.318797    237.398389                    
V 22  -2786.105441  -8619.264190  30227.765999      0.059435                    
P 23   1283.998155 -15392.392112  21587.638283    -12.007969                    
V 23  27011.857314  -4754.186185  -5088.738218     -0.029986                    
P 24  14391.709358 -18552.607479  11712.906198    261.344087                    
V 24  -1050.423267  15876.620987  26198.031524     -0.044872                    
P 25   8977.461544 -15621.302130 -19711.879969    306.919533                    
V 25  24387.190047  -2793.510124  13791.641099      0.050669                    
P 26 -21243.539625  -6490.843868 -14871.918936    195.753325                    
V 26  17734.679608  -6292.540781 -22409.256703      0.028924                    
P 27 -20197.618690  -8324.395913  15173.526454    173.226688                    
V 27 -11129.721391 -16031.580253 -22905.208975      0.103906                    
P 28  17661.013451  10593.409608  17159.315410    374.149312                    
V 28 -20712.750964   3061.676123  20258.180483     -0.019077                    
P 29    640.625312 -19767.939756 -17749.175335   -498.758931                    
V 29  13930.794779  17602.719628 -19212.295605     -0.043615                    
P 30   2625.595287  22084.044492  14410.342758   -521.959796                    
V 30  -9375.076308  16002.281184 -23182.828512     -0.018444                    
P 31 -10789.980020 -12541.728655 -20808.659388   -171.758053                    
V 31  10832.092886 -23941.856596   9327.160910     -0.016855                    
P 32 -16638.865867 -20826.382330    750.650836    -97.528447                    
V 32   2606.983455  -1153.121015  31552.757453     -0.077993                    
EOF
